OBJECT_NAME,OBJECT_ID,EPOCH,MEAN_MOTION,ECCENTRICITY,INCLINATION,RA_OF_ASC_NODE,ARG_OF_PERICENTER,MEAN_ANOMALY,EPHEMERIS_TYPE,CLASSIFICATION_TYPE,NORAD_CAT_ID,ELEMENT_SET_NO,REV_AT_EPOCH,BSTAR,MEAN_MOTION_DOT,MEAN_MOTION_DDOT
COSMOS 2058,1990-010A,2026-07-02T19:39:50.822208,15.12107402,.0008399,82.4691,293.9396,300.7433,59.2969,0,U,20465,999,95963,.16760237E-3,.2916E-4,0
SL-14 R/B,1990-010B,2026-07-02T21:10:08.777856,14.83656611,.00182108,82.5024,159.2052,281.3039,78.6129,0,U,20466,999,94556,.48094174E-4,.421E-5,0
SL-14 R/B,1990-018B,2026-07-02T19:23:53.895552,14.82227222,.00176618,82.5221,115.5078,74.6455,285.6709,0,U,20511,999,93963,.56907113E-4,.479E-5,0
HST,1990-037B,2026-07-02T17:22:47.381664,15.30934799,.00016255,28.4736,334.3758,336.7387,23.3136,0,U,20580,999,79095,.24931413E-3,.7907E-4,0
SL-16 R/B,1990-046B,2026-07-02T20:29:18.536064,14.15024191,.001252,70.9991,56.0463,136.1960,224.0158,0,U,20625,999,86468,-.9152769E-4,-.225E-5,0
COSMOS 2084,1990-055A,2026-07-02T17:31:24.273984,15.06182831,.0006661,62.7914,303.0379,304.3354,55.7116,0,U,20663,999,95364,.19658302E-3,.2694E-4,0
SL-6 R/B(2),1990-055D,2026-07-02T14:34:13.739808,15.04050645,.0043142,62.7804,222.9023,7.2205,352.9506,0,U,20666,999,95547,.13596703E-3,.1719E-4,0
SL-8 R/B,1990-078B,2026-07-02T21:08:07.269216,14.93121807,.03462227,82.9029,147.4567,345.4383,13.7047,0,U,20775,999,82646,.70454402E-3,.24892E-3,0
SL-8 R/B,1991-006B,2026-07-02T17:48:23.760288,13.77507515,.00238486,82.9421,84.4624,73.5424,294.3875,0,U,21088,999,77991,.78422675E-4,.94E-6,0
OKEAN-3,1991-039A,2026-07-02T19:49:08.683680,15.05393407,.00122652,82.5146,225.2165,300.1844,59.8168,0,U,21397,999,88235,.17412006E-3,.2527E-4,0
COSMOS 2151,1991-042A,2026-07-02T20:45:17.145792,15.00483512,.00130796,82.4972,332.5499,36.0420,324.1683,0,U,21422,999,88046,.12029037E-3,.1544E-4,0
SL-14 R/B,1991-042B,2026-07-02T19:38:03.590304,14.81912373,.00159291,82.4935,112.2382,218.7271,141.2802,0,U,21423,999,87012,.5135836E-4,.43E-5,0
ERS-1,1991-050A,2026-07-02T15:57:33.319872,14.39527701,.00311856,98.7793,204.7410,219.4827,140.4087,0,U,21574,999,83227,.14317742E-3,.403E-5,0
ARIANE 40 R/B,1991-050F,2026-07-02T20:37:06.535488,14.42966137,.00044574,98.1867,231.6650,87.8839,272.2863,0,U,21610,999,83560,.10058417E-3,.295E-5,0
INTERCOSMOS 25,1991-086A,2026-07-02T13:07:02.610336,12.12220272,.1484039,82.6030,240.5154,229.2268,117.0478,0,U,21819,999,51060,.15824E-3,.8E-5,0
SL-8 R/B,1992-008B,2026-07-02T18:46:49.175040,13.75981055,.00348927,82.9260,182.1918,170.7149,2.3722,0,U,21876,999,72524,.13619271E-3,.148E-5,0
SL-8 R/B,1992-020B,2026-07-02T14:39:31.906080,13.75550105,.0028666,82.9297,68.4009,339.7378,34.5129,0,U,21938,999,71693,.38698E-4,.52E-6,0
USA 81,1992-023A,2026-07-02T15:26:12.848928,14.32402314,.00024718,85.0063,65.0864,71.4644,288.6817,0,U,21949,999,11124,.63350008E-4,.191E-5,0
COSMOS 2219,1992-076A,2026-07-02T19:45:55.914048,14.14109183,.00174593,71.0608,137.3844,17.5734,342.5989,0,U,22219,999,73465,.91866423E-4,.128E-5,0
SL-16 R/B,1992-076B,2026-07-02T19:02:25.095264,14.16874363,.00150606,71.0013,305.9057,278.1586,244.3289,0,U,22220,999,73813,-.5852128E-4,-.166E-5,0
COSMOS 2221,1992-080A,2026-07-02T10:48:38.575008,14.96574411,.0014705,82.5034,169.1406,160.1512,200.0285,0,U,22236,999,79795,.15227E-3,.1762E-4,0
SL-16 R/B,1992-093B,2026-07-02T20:38:59.064576,14.15464818,.0003072,71.0216,122.4888,159.1821,200.9428,0,U,22285,999,72945,.16273386E-3,.27E-5,0
COSMOS 2228,1992-094A,2026-07-02T20:32:33.396576,14.97643640,.0015963,82.5185,127.0347,275.0418,84.8983,0,U,22286,999,79329,.19234788E-3,.2281E-4,0
SL-16 R/B,1993-016B,2026-07-02T20:12:37.220544,14.15313702,.00092316,71.0088,333.3258,160.0637,200.0848,0,U,22566,999,71846,-.11402722E-3,-.27E-5,0
COSMOS 2242,1993-024A,2026-07-02T10:06:58.050144,14.96951798,.00144,82.5188,156.9673,280.6682,79.2919,0,U,22626,999,79755,.17234E-3,.2009E-4,0
SL-16 R/B,1993-059B,2026-07-02T19:20:24.915552,14.17249902,.00159885,70.9900,128.3670,28.2579,331.9409,0,U,22803,999,69584,.14738636E-3,.25E-5,0
ARIANE 40 R/B,1993-061H,2026-07-02T15:17:50.668800,14.32914414,.00096367,98.4813,250.1732,307.5881,52.4428,0,U,22830,999,71056,.10589793E-3,.246E-5,0
COSMOS 2278,1994-023A,2026-07-02T17:38:39.707520,14.14396562,.00102457,71.0547,294.3953,224.2861,135.7443,0,U,23087,999,66107,-.85837275E-4,-.212E-5,0
SL-16 R/B,1994-023B,2026-07-02T17:31:12.791424,14.15026270,.00017565,70.9979,189.2900,168.9730,191.1432,0,U,23088,999,66236,-.90132623E-4,-.222E-5,0
SL-16 R/B,1994-074B,2026-07-02T20:36:48.045024,14.79516128,.00060771,97.6985,209.9265,193.3714,340.0191,0,U,23343,999,70427,.75710283E-4,.517E-5,0
